0 SL-8 R/B
1 04071U 69070B   13282.16100789  .00000301  00000-0  66791-4 0  5872
2 04071 074.0503 178.3964 0013562 144.8007 304.2975 14.61362411340985
0 SL-8 R/B
1 04071U 69070B   13283.20305042  .00000291  00000-0  64801-4 0  5886
2 04071 074.0502 176.4055 0013515 142.3344 026.5888 14.61363227341130
0 SL-8 R/B
1 04071U 69070B   13284.29114912  .00000339  00000-0  74599-4 0  5899
2 04071 074.0500 174.3266 0013462 139.8891 351.0607 14.61363806341293
0 SL-8 R/B
1 04071U 69070B   13285.78371681  .00000330  00000-0  72734-4 0  5904
2 04071 074.0498 171.4751 0013413 136.4069 283.5717 14.61364450341514
0 SL-8 R/B
1 04071U 69070B   13287.10404043  .00000391  00000-0  85150-4 0  5915
2 04071 074.0494 168.9526 0013356 133.4228 029.8010 14.61365339341706
0 SL-8 R/B
1 04071U 69070B   13288.13035527  .00000575  00000-0  12225-3 0  5923
2 04071 074.0492 166.9917 0013335 131.0610 029.2929 14.61367440341856
0 SL-8 R/B
1 04071U 69070B   13289.14864865  .00000441  00000-0  95152-4 0  5934
2 04071 074.0489 165.0461 0013320 128.6919 346.6150 14.61368757342006
0 SL-8 R/B
1 04071U 69070B   13290.71169672  .00000415  00000-0  89806-4 0  5944
2 04071 074.0487 162.0598 0013301 125.0381 289.9614 14.61370343342238
0 SL-8 R/B
1 04071U 69070B   13291.82017296  .00000438  00000-0  94639-4 0  5957
2 04071 074.0486 159.9418 0013275 122.4619 001.7548 14.61370964342390
0 SL-8 R/B
1 04071U 69070B   13293.12659682  .00000457  00000-0  98358-4 0  5967
2 04071 074.0485 157.4456 0013229 119.4361 034.9603 14.61371978342580
0 SL-8 R/B
1 04071U 69070B   13294.15154684  .00000441  00000-0  95097-4 0  5974
2 04071 074.0484 155.4872 0013202 116.9862 027.3880 14.61373252342735
0 SL-8 R/B
1 04071U 69070B   13295.17723120  .00000484  00000-0  10388-3 0  5981
2 04071 074.0484 153.5273 0013180 114.5748 023.6431 14.61373977342882
